$$SOE
2461295.500000000, A.D. 2026-Sep-12 00:00:00.0000, -3.549247334508232E+08, 2.757408124012788E+08, -7.830467982124121E+07,
2461302.500000000, A.D. 2026-Sep-19 00:00:00.0000, -3.604320514059747E+08, 2.682246526913560E+08, -7.700060055014460E+07,
2461309.500000000, A.D. 2026-Sep-26 00:00:00.0000, -3.657547379179409E+08, 2.605712589122721E+08, -7.565698493483594E+07,
2461316.500000000, A.D. 2026-Oct-03 00:00:00.0000, -3.708895388857886E+08, 2.527841745677187E+08, -7.427441547121648E+07,
2461323.500000000, A.D. 2026-Oct-10 00:00:00.0000, -3.758332298728873E+08, 2.448669985840432E+08, -7.285348832023536E+07,
2461330.500000000, A.D. 2026-Oct-17 00:00:00.0000, -3.805826160888423E+08, 2.368233870856576E+08, -7.139481365116966E+07,
2461337.500000000, A.D. 2026-Oct-24 00:00:00.0000, -3.851345324786314E+08, 2.286570551444215E+08, -6.989901601315072E+07,
2461344.500000000, A.D. 2026-Oct-31 00:00:00.0000, -3.894858438239848E+08, 2.203717784357504E+08, -6.836673474943504E+07,
2461351.500000000, A.D. 2026-Nov-07 00:00:00.0000, -3.936334445219427E+08, 2.119713948748332E+08, -6.679862447937331E+07,
2461358.500000000, A.D. 2026-Nov-14 00:00:00.0000, -3.975742578439911E+08, 2.034598071193331E+08, -6.519535559381731E+07,
2461365.500000000, A.D. 2026-Nov-21 00:00:00.0000, -4.013052364930031E+08, 1.948409866192496E+08, -6.355761454215867E+07,
2461372.500000000, A.D. 2026-Nov-28 00:00:00.0000, -4.048233654627926E+08, 1.861189762059329E+08, -6.188610406581955E+07,
2461379.500000000, A.D. 2026-Dec-05 00:00:00.0000, -4.081256635854110E+08, 1.772978905643305E+08, -6.018154376355045E+07,
2461386.500000000, A.D. 2026-Dec-12 00:00:00.0000, -4.112091836051081E+08, 1.683819176970730E+08, -5.844467074839340E+07,
2461393.500000000, A.D. 2026-Dec-19 00:00:00.0000, -4.140710126735629E+08, 1.593753213842129E+08, -5.667624022275391E+07,
2461400.500000000, A.D. 2026-Dec-26 00:00:00.0000, -4.167082734172816E+08, 1.502824437699691E+08, -5.487702603004495E+07,
2461407.500000000, A.D. 2027-Jan-02 00:00:00.0000, -4.191181253088738E+08, 1.411077078851855E+08, -5.304782122388324E+07,
2461414.500000000, A.D. 2027-Jan-09 00:00:00.0000, -4.212977662324437E+08, 1.318556201245878E+08, -5.118943866355416E+07,
2461421.500000000, A.D. 2027-Jan-16 00:00:00.0000, -4.232444342149200E+08, 1.225307726857498E+08, -4.930271163759379E+07,
2461428.500000000, A.D. 2027-Jan-23 00:00:00.0000, -4.249554092846797E+08, 1.131378459269787E+08, -4.738849452204354E+07,
2461435.500000000, A.D. 2027-Jan-30 00:00:00.0000, -4.264280152780331E+08, 1.036816105916173E+08, -4.544766349367806E+07,
2461442.500000000, A.D. 2027-Feb-06 00:00:00.0000, -4.276596211790148E+08, 9.416693023302504E+07, -4.348111730901636E+07,
2461449.500000000, A.D. 2027-Feb-13 00:00:00.0000, -4.286476424651113E+08, 8.459876505407430E+07, -4.148977800745171E+07,
2461456.500000000, A.D. 2027-Feb-20 00:00:00.0000, -4.293895448372999E+08, 7.498217636513929E+07, -3.947459138710764E+07,
2461463.500000000, A.D. 2027-Feb-27 00:00:00.0000, -4.298828489536637E+08, 6.532232844402662E+07, -3.743652764482404E+07,
2461470.500000000, A.D. 2027-Mar-06 00:00:00.0000, -4.301251331595800E+08, 5.562448971824773E+07, -3.537658229934178E+07,
2461477.500000000, A.D. 2027-Mar-13 00:00:00.0000, -4.301140358227019E+08, 4.589403531343769E+07, -3.329577708182634E+07,
2461484.500000000, A.D. 2027-Mar-20 00:00:00.0000, -4.298472584123600E+08, 3.613645012492149E+07, -3.119516075721347E+07,
2461491.500000000, A.D. 2027-Mar-27 00:00:00.0000, -4.293225691333004E+08, 2.635733185487024E+07, -2.907580993880755E+07,
2461498.500000000, A.D. 2027-Apr-03 00:00:00.0000, -4.285378069227046E+08, 1.656239395780959E+07, -2.693882991734188E+07,
2461505.500000000, A.D. 2027-Apr-10 00:00:00.0000, -4.274908857615914E+08, 6.757468506424578E+06, -2.478535550673014E+07,
2461512.500000000, A.D. 2027-Apr-17 00:00:00.0000, -4.261797992920431E+08, -3.051491049022279E+06, -2.261655190812913E+07,
2461519.500000000, A.D. 2027-Apr-24 00:00:00.0000, -4.246026256755723E+08, -1.285840730298489E+07, -2.043361560291477E+07,
2461526.500000000, A.D. 2027-May-01 00:00:00.0000, -4.227575324078857E+08, -2.265707648471791E+07, -1.823777529769599E+07,
2461533.500000000, A.D. 2027-May-08 00:00:00.0000, -4.206427807971458E+08, -3.244116548272420E+07, -1.603029288586118E+07,
2461540.500000000, A.D. 2027-May-15 00:00:00.0000, -4.182567316166095E+08, -4.220420736704829E+07, -1.381246420751693E+07,
2461547.500000000, A.D. 2027-May-22 00:00:00.0000, -4.155978535107719E+08, -5.193959802043102E+07, -1.158561967310013E+07,
2461554.500000000, A.D. 2027-May-29 00:00:00.0000, -4.126647308158590E+08, -6.164059536678879E+07, -9.351125174926531E+06,
2461561.500000000, A.D. 2027-Jun-05 00:00:00.0000, -4.094560699236845E+08, -7.130031808589606E+07, -7.110383107346550E+06,
2461568.500000000, A.D. 2027-Jun-12 00:00:00.0000, -4.059707062074390E+08, -8.091174340680814E+07, -4.864833271023735E+06,
2461575.500000000, A.D. 2027-Jun-19 00:00:00.0000, -4.022076118530764E+08, -9.046770494358571E+07, -2.615953702321451E+06,
2461582.500000000, A.D. 2027-Jun-26 00:00:00.0000, -3.981659043312173E+08, -9.996089086507243E+07, -3.652614693021774E+05,
2461589.500000000, A.D. 2027-Jul-03 00:00:00.0000, -3.938448553909000E+08, -1.093838424222851E+08, 1.885686560535669E+06,
2461596.500000000, A.D. 2027-Jul-10 00:00:00.0000, -3.892439005499568E+08, -1.187289528590310E+08, 4.135292985218301E+06,
2461603.500000000, A.D. 2027-Jul-17 00:00:00.0000, -3.843626490557281E+08, -1.279884667820194E+08, 6.381919167228147E+06,
2461610.500000000, A.D. 2027-Jul-24 00:00:00.0000, -3.792008941682859E+08, -1.371544800937662E+08, 8.623884555386811E+06,
2461617.500000000, A.D. 2027-Jul-31 00:00:00.0000, -3.737586233614863E+08, -1.462189402962629E+08, 1.085946602039279E+07,
2461624.500000000, A.D. 2027-Aug-07 00:00:00.0000, -3.680360286466279E+08, -1.551736460602013E+08, 1.308689732645774E+07,
2461631.500000000, A.D. 2027-Aug-14 00:00:00.0000, -3.620335193209122E+08, -1.640102463635383E+08, 1.530436893992416E+07,
2461638.500000000, A.D. 2027-Aug-21 00:00:00.0000, -3.557517365225191E+08, -1.727202426189143E+08, 1.751002785449534E+07,
2461645.500000000, A.D. 2027-Aug-28 00:00:00.0000, -3.491915661601088E+08, -1.812949926447343E+08, 1.970197722921382E+07,
2461652.500000000, A.D. 2027-Sep-04 00:00:00.0000, -3.423541513910547E+08, -1.897257140365525E+08, 2.187827616565716E+07,
2461659.500000000, A.D. 2027-Sep-11 00:00:00.0000, -3.352409060300501E+08, -1.980034876621174E+08, 2.403693971260842E+07,
2461666.500000000, A.D. 2027-Sep-18 00:00:00.0000, -3.278535287366721E+08, -2.061192619966276E+08, 2.617593904789494E+07,
2461673.500000000, A.D. 2027-Sep-25 00:00:00.0000, -3.201940177305258E+08, -2.140638584444712E+08, 2.829320182616457E+07,
2461680.500000000, A.D. 2027-Oct-02 00:00:00.0000, -3.122646859288250E+08, -2.218279776888761E+08, 3.038661270499349E+07,
2461687.500000000, A.D. 2027-Oct-09 00:00:00.0000, -3.040681764432834E+08, -2.294022071447626E+08, 3.245401406429152E+07,
2461694.500000000, A.D. 2027-Oct-16 00:00:00.0000, -2.956074783227330E+08, -2.367770296452919E+08, 3.449320692641038E+07,
2461701.500000000, A.D. 2027-Oct-23 00:00:00.0000, -2.868859422246247E+08, -2.439428334488806E+08, 3.650195207125235E+07,
2461708.500000000, A.D. 2027-Oct-30 00:00:00.0000, -2.779072955785361E+08, -2.508899230396876E+08, 3.847797138199033E+07,
2461715.500000000, A.D. 2027-Nov-06 00:00:00.0000, -2.686756583349227E+08, -2.576085296747542E+08, 4.041894964161817E+07,
2461722.500000000, A.D. 2027-Nov-13 00:00:00.0000, -2.591955612024524E+08, -2.640888238325339E+08, 4.232253681450791E+07,
2461729.500000000, A.D. 2027-Nov-20 00:00:00.0000, -2.494719633780441E+08, -2.703209318260611E+08, 4.418635039037704E+07,
2461736.500000000, A.D. 2027-Nov-27 00:00:00.0000, -2.395102680459230E+08, -2.762949536901497E+08, 4.600797790713964E+07,
2461743.500000000, A.D. 2027-Dec-04 00:00:00.0000, -2.293163375482668E+08, -2.820009814959626E+08, 4.778497993490172E+07,
2461750.500000000, A.D. 2027-Dec-11 00:00:00.0000, -2.188965086415252E+08, -2.874291191175491E+08, 4.951489351355447E+07,
2461757.500000000, A.D. 2027-Dec-18 00:00:00.0000, -2.082576074121599E+08, -2.925695038436826E+08, 5.119523601040594E+07,
2461764.500000000, A.D. 2027-Dec-25 00:00:00.0000, -1.974069635352540E+08, -2.974123298841175E+08, 5.282350940205506E+07,
2461771.500000000, A.D. 2028-Jan-01 00:00:00.0000, -1.863524236578575E+08, -3.019478737920694E+08, 5.439720499520728E+07,
$$EOE